[{
  "name": {
    "first": "Vaughan",
    "last": "Shepard"
  },
  "address": {
    "street1": "Ap #122-9651 Egestas Av.",
    "street2": "",
    "city": "Dublin",
    "region": "L",
    "postalCode": "70407"
  },
  "documents": {
    "DL": "784224249",
    "TIN": "218639600"
  }
}, {
  "name": {
    "first": "Tate",
    "last": "Carlson"
  },
  "address": {
    "street1": "7378 Tristique St.",
    "street2": "",
    "city": "Milnathort",
    "region": "KR",
    "postalCode": "8329"
  },
  "documents": {
    "DL": "540307343",
    "TIN": "170252982"
  }
}, {
  "name": {
    "first": "Tate",
    "last": "Guzman"
  },
  "address": {
    "street1": "Ap #645-9931 Orci. Road",
    "street2": "",
    "city": "St. Petersburg",
    "region": "FL",
    "postalCode": "6971"
  },
  "documents": {
    "DL": "820988407"
  }
}, {
  "name": {
    "first": "Jameson",
    "last": "Daugherty"
  },
  "address": {
    "street1": "642-8887 Vitae, St.",
    "street2": "",
    "city": "Geelong",
    "region": "Victoria",
    "postalCode": "02-703"
  },
  "documents": {
    "PP": "919633132",
    "TIN": "554487758"
  }
}, {
  "name": {
    "first": "Armand",
    "last": "Curry"
  },
  "address": {
    "street1": "352-6369 Per Rd.",
    "street2": "",
    "city": "Bear",
    "region": "DE",
    "postalCode": "8829"
  },
  "documents": {
    "PP": "149300342"
  }
}, {
  "name": {
    "first": "Tanner",
    "last": "Lewis"
  },
  "address": {
    "street1": "Ap #732-7124 Eu Road",
    "street2": "",
    "city": "Millport",
    "region": "BU",
    "postalCode": "89608"
  },
  "documents": {
    "PP": "430486165"
  }
}, {
  "name": {
    "first": "Ryan",
    "last": "Kim"
  },
  "address": {
    "street1": "348-8414 Vitae Av.",
    "street2": "",
    "city": "Shawinigan",
    "region": "Quebec",
    "postalCode": "31412"
  },
  "documents": {
    "DL": "255965769",
    "TIN": "121858144"
  }
}, {
  "name": {
    "first": "Colton",
    "last": "Clayton"
  },
  "address": {
    "street1": "P.O. Box 819, 829 Vel, Street",
    "street2": "",
    "city": "Pike Creek",
    "region": "DE",
    "postalCode": "5161"
  },
  "documents": {
    "DL": "711091265"
  }
}, {
  "name": {
    "first": "Dennis",
    "last": "Harding"
  },
  "address": {
    "street1": "395-6140 Mauris. St.",
    "street2": "",
    "city": "Veere",
    "region": "Zl",
    "postalCode": "13477"
  },
  "documents": {
    "PP": "197281253",
    "TIN": "848862310"
  }
}, {
  "name": {
    "first": "Abraham",
    "last": "Rollins"
  },
  "address": {
    "street1": "4935 Ultrices Road",
    "street2": "",
    "city": "Quintero",
    "region": "V",
    "postalCode": "44519"
  },
  "documents": {
    "PP": "235267001"
  }
}]